SL-14 R/B               
1 18749U 88001B   25332.90180904  .00000617  00000+0  68761-4 0  9997
2 18749  82.5120 290.1636 0017240 207.1861 152.8454 14.85400415 27061
COSMOS 1933             
1 18958U 88020A   25332.57132995  .00003689  00000+0  18553-3 0  9995
2 18958  82.5141 350.8776 0004431 169.3069 190.8259 15.16937746 34893
SL-3 R/B                
1 19046U 88032B   25333.22214984  .00006182  00000+0  30028-3 0  9991
2 19046  97.5070 312.0396 0025342 221.2101 138.7221 15.18533220 36855
SL-16 R/B               
1 19120U 88039B   25333.14746588 -.00000100  00000+0 -24700-4 0  9999
2 19120  71.0145 281.1371 0020235 139.0371 221.2279 14.19592958944119
COSMOS 1953             
1 19210U 88050A   25333.20357411  .00007030  00000+0  26587-3 0  9993
2 19210  82.5084 259.1602 0013656 112.5834 247.6851 15.26694485 22447
SL-8 R/B                
1 19257U 88053B   25333.18234676  .00000269  00000+0  95769-4 0  9997
2 19257  74.0471 297.7064 0019379 146.6153 230.5253 14.38846112962149
COSMOS 1975             
1 19573U 88093A   25333.14457270  .00008328  00000+0  32048-3 0  9999
2 19573  82.5211 218.4343 0011817 155.9120 204.2673 15.26165501  4068
SL-14 R/B               
1 19574U 88093B   25332.90947105  .00000588  00000+0  64989-4 0  9994
2 19574  82.5294 136.6461 0021113  15.8122  98.6164 14.85525961986072
SL-16 R/B               
1 19650U 88102B   25333.10828291  .00000059  00000+0  53992-4 0  9992
2 19650  71.0008   3.1261 0013694 173.8933 186.2360 14.16136996912654
INTERCOSMOS 24          
1 20261U 89080A   25332.99925841  .00000844  00000+0  24312-3 0  9998
2 20261  82.6046 169.8871 1188636 166.3867 197.2515 12.59402313654127
SL-14 R/B               
1 20262U 89080C   25333.14309922  .00000464  00000+0  13175-3 0  9996
2 20262  82.5940 237.7464 1230877  54.6556 316.3422 12.50396307647581
DELTA 1 R/B             
1 20323U 89089B   25333.18862031  .00000403  00000+0  10826-3 0  9995
2 20323  97.0762 191.5731 0070714  80.3248 280.5929 14.50554993881168
