CCSDS_OMM_VERS = 2.0
CREATION_DATE  = 
ORIGINATOR     = 

OBJECT_NAME    = SL-14 R/B
OBJECT_ID      = 1988-001B
CENTER_NAME    = EARTH
REF_FRAME      = TEME
TIME_SYSTEM    = UTC
MEAN_ELEMENT_THEORY = SGP/SGP4

EPOCH          = 2025-11-28T21:38:36.301056
MEAN_MOTION    = 14.85400415
ECCENTRICITY   = .001724
INCLINATION    = 82.5120
RA_OF_ASC_NODE = 290.1636
ARG_OF_PERICENTER = 207.1861
MEAN_ANOMALY   = 152.8454

EPHEMERIS_TYPE = 0
CLASSIFICATION_TYPE = U
NORAD_CAT_ID   = 18749
ELEMENT_SET_NO = 999
REV_AT_EPOCH   = 2706
BSTAR          = .68761E-4
MEAN_MOTION_DOT = .617E-5
MEAN_MOTION_DDOT = 0

CCSDS_OMM_VERS = 2.0
CREATION_DATE  = 
ORIGINATOR     = 

OBJECT_NAME    = COSMOS 1933
OBJECT_ID      = 1988-020A
CENTER_NAME    = EARTH
REF_FRAME      = TEME
TIME_SYSTEM    = UTC
MEAN_ELEMENT_THEORY = SGP/SGP4

EPOCH          = 2025-11-28T13:42:42.907680
MEAN_MOTION    = 15.16937746
ECCENTRICITY   = .00044319
INCLINATION    = 82.5141
RA_OF_ASC_NODE = 350.8776
ARG_OF_PERICENTER = 169.3069
MEAN_ANOMALY   = 190.8259

EPHEMERIS_TYPE = 0
CLASSIFICATION_TYPE = U
NORAD_CAT_ID   = 18958
ELEMENT_SET_NO = 999
REV_AT_EPOCH   = 3489
BSTAR          = .18553352E-3
MEAN_MOTION_DOT = .3689E-4
MEAN_MOTION_DDOT = 0

CCSDS_OMM_VERS = 2.0
CREATION_DATE  = 
ORIGINATOR     = 

OBJECT_NAME    = SL-3 R/B
OBJECT_ID      = 1988-032B
CENTER_NAME    = EARTH
REF_FRAME      = TEME
TIME_SYSTEM    = UTC
MEAN_ELEMENT_THEORY = SGP/SGP4

EPOCH          = 2025-11-29T05:19:53.746176
MEAN_MOTION    = 15.18533220
ECCENTRICITY   = .0025342
INCLINATION    = 97.5070
RA_OF_ASC_NODE = 312.0396
ARG_OF_PERICENTER = 221.2101
MEAN_ANOMALY   = 138.7221

EPHEMERIS_TYPE = 0
CLASSIFICATION_TYPE = U
NORAD_CAT_ID   = 19046
ELEMENT_SET_NO = 999
REV_AT_EPOCH   = 3685
BSTAR          = .30028E-3
MEAN_MOTION_DOT = .6182E-4
MEAN_MOTION_DDOT = 0

CCSDS_OMM_VERS = 2.0
CREATION_DATE  = 
ORIGINATOR     = 

OBJECT_NAME    = SL-16 R/B
OBJECT_ID      = 1988-039B
CENTER_NAME    = EARTH
REF_FRAME      = TEME
TIME_SYSTEM    = UTC
MEAN_ELEMENT_THEORY = SGP/SGP4

EPOCH          = 2025-11-29T03:32:21.052032
MEAN_MOTION    = 14.19592958
ECCENTRICITY   = .0020235
INCLINATION    = 71.0145
RA_OF_ASC_NODE = 281.1371
ARG_OF_PERICENTER = 139.0371
MEAN_ANOMALY   = 221.2279

EPHEMERIS_TYPE = 0
CLASSIFICATION_TYPE = U
NORAD_CAT_ID   = 19120
ELEMENT_SET_NO = 999
REV_AT_EPOCH   = 94411
BSTAR          = -.247E-4
MEAN_MOTION_DOT = -.1E-5
MEAN_MOTION_DDOT = 0

CCSDS_OMM_VERS = 2.0
CREATION_DATE  = 
ORIGINATOR     = 

OBJECT_NAME    = COSMOS 1953
OBJECT_ID      = 1988-050A
CENTER_NAME    = EARTH
REF_FRAME      = TEME
TIME_SYSTEM    = UTC
MEAN_ELEMENT_THEORY = SGP/SGP4

EPOCH          = 2025-11-29T04:53:08.803104
MEAN_MOTION    = 15.26694485
ECCENTRICITY   = .0013656
INCLINATION    = 82.5084
RA_OF_ASC_NODE = 259.1602
ARG_OF_PERICENTER = 112.5834
MEAN_ANOMALY   = 247.6851

EPHEMERIS_TYPE = 0
CLASSIFICATION_TYPE = U
NORAD_CAT_ID   = 19210
ELEMENT_SET_NO = 999
REV_AT_EPOCH   = 2244
BSTAR          = .26587E-3
MEAN_MOTION_DOT = .703E-4
MEAN_MOTION_DDOT = 0

CCSDS_OMM_VERS = 2.0
CREATION_DATE  = 
ORIGINATOR     = 

OBJECT_NAME    = SL-8 R/B
OBJECT_ID      = 1988-053B
CENTER_NAME    = EARTH
REF_FRAME      = TEME
TIME_SYSTEM    = UTC
MEAN_ELEMENT_THEORY = SGP/SGP4

EPOCH          = 2025-11-29T04:22:34.760064
MEAN_MOTION    = 14.38846112
ECCENTRICITY   = .0019379
INCLINATION    = 74.0471
RA_OF_ASC_NODE = 297.7064
ARG_OF_PERICENTER = 146.6153
MEAN_ANOMALY   = 230.5253

EPHEMERIS_TYPE = 0
CLASSIFICATION_TYPE = U
NORAD_CAT_ID   = 19257
ELEMENT_SET_NO = 999
REV_AT_EPOCH   = 96214
BSTAR          = .95769E-4
MEAN_MOTION_DOT = .269E-5
MEAN_MOTION_DDOT = 0

CCSDS_OMM_VERS = 2.0
CREATION_DATE  = 
ORIGINATOR     = 

OBJECT_NAME    = COSMOS 1975
OBJECT_ID      = 1988-093A
CENTER_NAME    = EARTH
REF_FRAME      = TEME
TIME_SYSTEM    = UTC
MEAN_ELEMENT_THEORY = SGP/SGP4

EPOCH          = 2025-11-29T03:28:11.081280
MEAN_MOTION    = 15.26165501
ECCENTRICITY   = .0011817
INCLINATION    = 82.5211
RA_OF_ASC_NODE = 218.4343
ARG_OF_PERICENTER = 155.9120
MEAN_ANOMALY   = 204.2673

EPHEMERIS_TYPE = 0
CLASSIFICATION_TYPE = U
NORAD_CAT_ID   = 19573
ELEMENT_SET_NO = 999
REV_AT_EPOCH   = 406
BSTAR          = .32048E-3
MEAN_MOTION_DOT = .8328E-4
MEAN_MOTION_DDOT = 0

CCSDS_OMM_VERS = 2.0
CREATION_DATE  = 
ORIGINATOR     = 

OBJECT_NAME    = SL-14 R/B
OBJECT_ID      = 1988-093B
CENTER_NAME    = EARTH
REF_FRAME      = TEME
TIME_SYSTEM    = UTC
MEAN_ELEMENT_THEORY = SGP/SGP4

EPOCH          = 2025-11-28T21:49:38.298720
MEAN_MOTION    = 14.85525961
ECCENTRICITY   = .0021113
INCLINATION    = 82.5294
RA_OF_ASC_NODE = 136.6461
ARG_OF_PERICENTER = 15.8122
MEAN_ANOMALY   = 98.6164

EPHEMERIS_TYPE = 0
CLASSIFICATION_TYPE = U
NORAD_CAT_ID   = 19574
ELEMENT_SET_NO = 999
REV_AT_EPOCH   = 98607
BSTAR          = .64989E-4
MEAN_MOTION_DOT = .588E-5
MEAN_MOTION_DDOT = 0

CCSDS_OMM_VERS = 2.0
CREATION_DATE  = 
ORIGINATOR     = 

OBJECT_NAME    = SL-16 R/B
OBJECT_ID      = 1988-102B
CENTER_NAME    = EARTH
REF_FRAME      = TEME
TIME_SYSTEM    = UTC
MEAN_ELEMENT_THEORY = SGP/SGP4

EPOCH          = 2025-11-29T02:35:55.643424
MEAN_MOTION    = 14.16136996
ECCENTRICITY   = .0013694
INCLINATION    = 71.0008
RA_OF_ASC_NODE = 3.1261
ARG_OF_PERICENTER = 173.8933
MEAN_ANOMALY   = 186.2360

EPHEMERIS_TYPE = 0
CLASSIFICATION_TYPE = U
NORAD_CAT_ID   = 19650
ELEMENT_SET_NO = 999
REV_AT_EPOCH   = 91265
BSTAR          = .53992E-4
MEAN_MOTION_DOT = .59E-6
MEAN_MOTION_DDOT = 0

CCSDS_OMM_VERS = 2.0
CREATION_DATE  = 
ORIGINATOR     = 

OBJECT_NAME    = INTERCOSMOS 24
OBJECT_ID      = 1989-080A
CENTER_NAME    = EARTH
REF_FRAME      = TEME
TIME_SYSTEM    = UTC
MEAN_ELEMENT_THEORY = SGP/SGP4

EPOCH          = 2025-11-28T23:58:55.926624
MEAN_MOTION    = 12.59402313
ECCENTRICITY   = .1188636
INCLINATION    = 82.6046
RA_OF_ASC_NODE = 169.8871
ARG_OF_PERICENTER = 166.3867
MEAN_ANOMALY   = 197.2515

EPHEMERIS_TYPE = 0
CLASSIFICATION_TYPE = U
NORAD_CAT_ID   = 20261
ELEMENT_SET_NO = 999
REV_AT_EPOCH   = 65412
BSTAR          = .24312E-3
MEAN_MOTION_DOT = .844E-5
MEAN_MOTION_DDOT = 0

CCSDS_OMM_VERS = 2.0
CREATION_DATE  = 
ORIGINATOR     = 

OBJECT_NAME    = SL-14 R/B
OBJECT_ID      = 1989-080C
CENTER_NAME    = EARTH
REF_FRAME      = TEME
TIME_SYSTEM    = UTC
MEAN_ELEMENT_THEORY = SGP/SGP4

EPOCH          = 2025-11-29T03:26:03.772608
MEAN_MOTION    = 12.50396307
ECCENTRICITY   = .1230877
INCLINATION    = 82.5940
RA_OF_ASC_NODE = 237.7464
ARG_OF_PERICENTER = 54.6556
MEAN_ANOMALY   = 316.3422

EPHEMERIS_TYPE = 0
CLASSIFICATION_TYPE = U
NORAD_CAT_ID   = 20262
ELEMENT_SET_NO = 999
REV_AT_EPOCH   = 64758
BSTAR          = .13175E-3
MEAN_MOTION_DOT = .464E-5
MEAN_MOTION_DDOT = 0

CCSDS_OMM_VERS = 2.0
CREATION_DATE  = 
ORIGINATOR     = 

OBJECT_NAME    = DELTA 1 R/B
OBJECT_ID      = 1989-089B
CENTER_NAME    = EARTH
REF_FRAME      = TEME
TIME_SYSTEM    = UTC
MEAN_ELEMENT_THEORY = SGP/SGP4

EPOCH          = 2025-11-29T04:31:36.794784
MEAN_MOTION    = 14.50554993
ECCENTRICITY   = .0070714
INCLINATION    = 97.0762
RA_OF_ASC_NODE = 191.5731
ARG_OF_PERICENTER = 80.3248
MEAN_ANOMALY   = 280.5929

EPHEMERIS_TYPE = 0
CLASSIFICATION_TYPE = U
NORAD_CAT_ID   = 20323
ELEMENT_SET_NO = 999
REV_AT_EPOCH   = 88116
BSTAR          = .10826E-3
MEAN_MOTION_DOT = .403E-5
MEAN_MOTION_DDOT = 0

